$$SOE
2459580.500000000, A.D. 2022-Jan-01 00:00:00.0000, -1.376326344825981E+08, -3.190615898924272E+08, -2.580396118606035E+07,
2459587.500000000, A.D. 2022-Jan-08 00:00:00.0000, -1.264480309816673E+08, -3.237792472826276E+08, -2.871850679729991E+07,
2459594.500000000, A.D. 2022-Jan-15 00:00:00.0000, -1.151187696039788E+08, -3.281264827305956E+08, -3.160019699459036E+07,
2459601.500000000, A.D. 2022-Jan-22 00:00:00.0000, -1.036582438280212E+08, -3.320995740237752E+08, -3.444585579985876E+07,
2459608.500000000, A.D. 2022-Jan-29 00:00:00.0000, -9.207995448919459E+07, -3.356953993017979E+08, -3.725238501466689E+07,
2459615.500000000, A.D. 2022-Feb-05 00:00:00.0000, -8.039747886745793E+07, -3.389114372743330E+08, -4.001677034556134E+07,
2459622.500000000, A.D. 2022-Feb-12 00:00:00.0000, -6.862443797378917E+07, -3.417457662467561E+08, -4.273608737294094E+07,
2459629.500000000, A.D. 2022-Feb-19 00:00:00.0000, -5.677446354169646E+07, -3.441970596614022E+08, -4.540750702622348E+07,
2459636.500000000, A.D. 2022-Feb-26 00:00:00.0000, -4.486116620608218E+07, -3.462645789681763E+08, -4.802830048647267E+07,
2459643.500000000, A.D. 2022-Mar-05 00:00:00.0000, -3.289810486891244E+07, -3.479481645455717E+08, -5.059584356846976E+07,
2459650.500000000, A.D. 2022-Mar-12 00:00:00.0000, -2.089875717510831E+07, -3.492482248537294E+08, -5.310762059940863E+07,
2459657.500000000, A.D. 2022-Mar-19 00:00:00.0000, -8.876491157535607E+06, -3.501657239178435E+08, -5.556122779444697E+07,
2459664.500000000, A.D. 2022-Mar-26 00:00:00.0000, 3.155461857282565E+06, -3.507021672846174E+08, -5.795437613248658E+07,
2459671.500000000, A.D. 2022-Apr-02 00:00:00.0000, 1.518403305109494E+07, -3.508595866535181E+08, -6.028489374852753E+07,
2459678.500000000, A.D. 2022-Apr-09 00:00:00.0000, 2.719634080971742E+07, -3.506405233292637E+08, -6.255072787661493E+07,
2459685.500000000, A.D. 2022-Apr-16 00:00:00.0000, 3.917971459789757E+07, -3.500480099941059E+08, -6.474994633502263E+07,
2459692.500000000, A.D. 2022-Apr-23 00:00:00.0000, 5.112171668684962E+07, -3.490855498659783E+08, -6.688073836276323E+07,
2459699.500000000, A.D. 2022-Apr-30 00:00:00.0000, 6.301015982305397E+07, -3.477570956325499E+08, -6.894141483432949E+07,
2459706.500000000, A.D. 2022-May-07 00:00:00.0000, 7.483312387906212E+07, -3.460670302762942E+08, -7.093040831178740E+07,
2459713.500000000, A.D. 2022-May-14 00:00:00.0000, 8.657897287167248E+07, -3.440201468958480E+08, -7.284627283426912E+07,
2459720.500000000, A.D. 2022-May-21 00:00:00.0000, 9.823637032567164E+07, -3.416216269092641E+08, -7.468768322161275E+07,
2459727.500000000, A.D. 2022-May-28 00:00:00.0000, 1.097942925231244E+08, -3.388770177394006E+08, -7.645343395453577E+07,
2459734.500000000, A.D. 2022-Jun-04 00:00:00.0000, 1.212420399416099E+08, -3.357922104290875E+08, -7.814243771122684E+07,
2459741.500000000, A.D. 2022-Jun-11 00:00:00.0000, 1.325692470598590E+08, -3.323734173086756E+08, -7.975372360169759E+07,
2459748.500000000, A.D. 2022-Jun-18 00:00:00.0000, 1.437658906116338E+08, -3.286271498159608E+08, -8.128643512944698E+07,
2459755.500000000, A.D. 2022-Jun-25 00:00:00.0000, 1.548222963685484E+08, -3.245601966040496E+08, -8.273982791220133E+07,
2459762.500000000, A.D. 2022-Jul-02 00:00:00.0000, 1.657291446458195E+08, -3.201796020968343E+08, -8.411326720585087E+07,
2459769.500000000, A.D. 2022-Jul-09 00:00:00.0000, 1.764774749871894E+08, -3.154926454024090E+08, -8.540622527961306E+07,
2459776.500000000, A.D. 2022-Jul-16 00:00:00.0000, 1.870586900427549E+08, -3.105068185812247E+08, -8.661827857481956E+07,
2459783.500000000, A.D. 2022-Jul-23 00:00:00.0000, 1.974645565117579E+08, -3.052298042603045E+08, -8.774910446334803E+07,
2459790.500000000, A.D. 2022-Jul-30 00:00:00.0000, 2.076872033072044E+08, -2.996694560041819E+08, -8.879847790935598E+07,
2459797.500000000, A.D. 2022-Aug-06 00:00:00.0000, 2.177191206181328E+08, -2.938337808422326E+08, -8.976626833266410E+07,
2459804.500000000, A.D. 2022-Aug-13 00:00:00.0000, 2.275531591260642E+08, -2.877309212405609E+08, -9.065243639467211E+07,
2459811.500000000, A.D. 2022-Aug-20 00:00:00.0000, 2.371825278856236E+08, -2.813691370579776E+08, -9.145703062497327E+07,
2459818.500000000, A.D. 2022-Aug-27 00:00:00.0000, 2.466007910155556E+08, -2.747567882415100E+08, -9.218018397431667E+07,
2459825.500000000, A.D. 2022-Sep-03 00:00:00.0000, 2.558018635244146E+08, -2.679023183943351E+08, -9.282211034463058E+07,
2459832.500000000, A.D. 2022-Sep-10 00:00:00.0000, 2.647800064348642E+08, -2.608142392085266E+08, -9.338310111992788E+07,
2459839.500000000, A.D. 2022-Sep-17 00:00:00.0000, 2.735298213065170E+08, -2.535011157745995E+08, -9.386352171661212E+07,
2459846.500000000, A.D. 2022-Sep-24 00:00:00.0000, 2.820462442846880E+08, -2.459715528223929E+08, -9.426380817643425E+07,
2459853.500000000, A.D. 2022-Oct-01 00:00:00.0000, 2.903245399796652E+08, -2.382341819127387E+08, -9.458446383776656E+07,
2459860.500000000, A.D. 2022-Oct-08 00:00:00.0000, 2.983602956476995E+08, -2.302976490510515E+08, -9.482605609117141E+07,
2459867.500000000, A.D. 2022-Oct-15 00:00:00.0000, 3.061494148034391E+08, -2.221706015157442E+08, -9.498921304674880E+07,
2459874.500000000, A.D. 2022-Oct-22 00:00:00.0000, 3.136881081376922E+08, -2.138616755744745E+08, -9.507462005983573E+07,
2459881.500000000, A.D. 2022-Oct-29 00:00:00.0000, 3.209728842881894E+08, -2.053794876644212E+08, -9.508301656268606E+07,
2459888.500000000, A.D. 2022-Nov-05 00:00:00.0000, 3.280005426111160E+08, -1.967326262744295E+08, -9.501519317653748E+07,
2459895.500000000, A.D. 2022-Nov-12 00:00:00.0000, 3.347681660354533E+08, -1.879296432405583E+08, -9.487198882607430E+07,
2459902.500000000, A.D. 2022-Nov-19 00:00:00.0000, 3.412731133237879E+08, -1.789790453869045E+08, -9.465428787315913E+07,
2459909.500000000, A.D. 2022-Nov-26 00:00:00.0000, 3.475130110410133E+08, -1.698892868850868E+08, -9.436301733016461E+07,
2459916.500000000, A.D. 2022-Dec-03 00:00:00.0000, 3.534857454329515E+08, -1.606687623186907E+08, -9.399914417204067E+07,
2459923.500000000, A.D. 2022-Dec-10 00:00:00.0000, 3.591894542935072E+08, -1.513258004080599E+08, -9.356367275206451E+07,
2459930.500000000, A.D. 2022-Dec-17 00:00:00.0000, 3.646225188751252E+08, -1.418686583943847E+08, -9.305764232726479E+07,
2459937.500000000, A.D. 2022-Dec-24 00:00:00.0000, 3.697835559782794E+08, -1.323055171228776E+08, -9.248212470976296E+07,
2459944.500000000, A.D. 2022-Dec-31 00:00:00.0000, 3.746714106001115E+08, -1.226444766905911E+08, -9.183822206778993E+07,
2459951.500000000, A.D. 2023-Jan-07 00:00:00.0000, 3.792851492858825E+08, -1.128935516687518E+08, -9.112706480833693E+07,
2459958.500000000, A.D. 2023-Jan-14 00:00:00.0000, 3.836240522367445E+08, -1.030606653775885E+08, -9.034980932009989E+07,
2459965.500000000, A.D. 2023-Jan-21 00:00:00.0000, 3.876876035438580E+08, -9.315364636303177E+07, -8.950763577514555E+07,
2459972.500000000, A.D. 2023-Jan-28 00:00:00.0000, 3.914754832253225E+08, -8.318022724403957E+07, -8.860174633794601E+07,
2459979.500000000, A.D. 2023-Feb-04 00:00:00.0000, 3.949875608668373E+08, -7.314804287332405E+07, -8.763336351202327E+07,
2459986.500000000, A.D. 2023-Feb-11 00:00:00.0000, 3.982238890831109E+08, -6.306462797735660E+07, -8.660372847386959E+07,
2459993.500000000, A.D. 2023-Feb-18 00:00:00.0000, 4.011846967489883E+08, -5.293741507422236E+07, -8.551409945486751E+07,
2460000.500000000, A.D. 2023-Feb-25 00:00:00.0000, 4.038703822732292E+08, -4.277373280917063E+07, -8.436575020745236E+07,
2460007.500000000, A.D. 2023-Mar-04 00:00:00.0000, 4.062815070243540E+08, -3.258080466861067E+07, -8.315996856140055E+07,
2460014.500000000, A.D. 2023-Mar-11 00:00:00.0000, 4.084187889417831E+08, -2.236574805208999E+07, -8.189805507006226E+07,
2460021.500000000, A.D. 2023-Mar-18 00:00:00.0000, 4.102830963821400E+08, -1.213557373211825E+07, -8.058132175171423E+07,
2460028.500000000, A.D. 2023-Mar-25 00:00:00.0000, 4.118754424051318E+08, -1.897185730218012E+06, -7.921109094510418E+07,
2460035.500000000, A.D. 2023-Apr-01 00:00:00.0000, 4.131969799220846E+08, 8.342618802735150E+06, -7.778869428208175E+07,
2460042.500000000, A.D. 2023-Apr-08 00:00:00.0000, 4.142489970899621E+08, 1.857715094674433E+07, -7.631547161692977E+07,
2460049.500000000, A.D. 2023-Apr-15 00:00:00.0000, 4.150329106158835E+08, 2.879983152598188E+07, -7.479276978596008E+07,
2460056.500000000, A.D. 2023-Apr-22 00:00:00.0000, 4.155502587820375E+08, 3.900418973741844E+07, -7.322194161039077E+07,
2460063.500000000, A.D. 2023-Apr-29 00:00:00.0000, 4.158026969217208E+08, 4.918386116174260E+07, -7.160434520577897E+07,
2460070.500000000, A.D. 2023-May-06 00:00:00.0000, 4.157919935822523E+08, 5.933258695294710E+07, -6.994134328772759E+07,
2460077.500000000, A.D. 2023-May-13 00:00:00.0000, 4.155200263952726E+08, 6.944421332716797E+07, -6.823430245462583E+07,
2460084.500000000, A.D. 2023-May-20 00:00:00.0000, 4.149887778855333E+08, 7.951269087252998E+07, -6.648459250652573E+07,
2460091.500000000, A.D. 2023-May-27 00:00:00.0000, 4.142003314080259E+08, 8.953207366257739E+07, -6.469358581783523E+07,
2460098.500000000, A.D. 2023-Jun-03 00:00:00.0000, 4.131568672670391E+08, 9.949651821064128E+07, -6.286265676457493E+07,
2460105.500000000, A.D. 2023-Jun-10 00:00:00.0000, 4.118606590368169E+08, 1.094002822621548E+08, -6.099318120718297E+07,
2460112.500000000, A.D. 2023-Jun-17 00:00:00.0000, 4.103140701688936E+08, 1.192377233748800E+08, -5.908653603974303E+07,
2460119.500000000, A.D. 2023-Jun-24 00:00:00.0000, 4.085195512019579E+08, 1.290032973514540E+08, -5.714409882828691E+07,
2460126.500000000, A.D. 2023-Jul-01 00:00:00.0000, 4.064796378213530E+08, 1.386915573599259E+08, -5.516724749122290E+07,
2460133.500000000, A.D. 2023-Jul-08 00:00:00.0000, 4.041969480871664E+08, 1.482971545735693E+08, -5.315735979843379E+07,
2460140.500000000, A.D. 2023-Jul-15 00:00:00.0000, 4.016741775516179E+08, 1.578148375103697E+08, -5.111581280140013E+07,
$$EOE